C/2022 U3 (Bok),h,07/28.6316/2024,33.6608,272.7869,189.1227,1.000910,4.826465,2000,7.5,4.0
# From MPEC 2023-W26
C/2022 U4 (Bok),e,52.0477,132.9160,88.9940,2749,0.0000068,0.99894604,0.0000,08/03.6203/2023,2000,g 10.5,4.0
# From MPEC 2024-H50
C/2022 V2 (Lemmon),e,98.9014,332.8635,168.9486,36.67893,0.0044369,0.94373432,1.8862,12/31.0/2024,2000,g 12.0,4.0
# From MPEC 2023-CD7
P/2022 W1 (Rankin),e,13.4653,38.8226,17.9054,6.974087,0.0535147,0.51661196,44.7832,12/31.0/2024,2000,g 12.5,4.0
# From MPEC 2024-EF7
C/2022 W2 (ATLAS),e,63.5091,320.4430,123.2975,344.0198,0.0001545,0.99091941,0.0000,03/08.7749/2023,2000,g 11.5,4.0
# From MPEC 2024-C04
C/2022 W3 (Leonard),e,103.5750,132.2899,116.5229,278.5321,0.0002120,0.99498251,0.0000,06/22.7825/2023,2000,g 13.0,4.0
# From MPEC 2023-M14
C/2022 Y1 (Hogan),e,18.8554,285.8821,174.8450,12.60327,0.0220282,0.76519626,16.8386,12/31.0/2024,2000,g  9.0,4.0
# From MPEC 2023-TM6
C/2022 Y2 (Lemmon),e,165.8848,216.3516,105.4227,19.69491,0.0112765,0.87099712,7.3255,12/31.0/2024,2000,g 13.5,4.0
# From MPEC 2024-GJ3
C/2023 A1 (Leonard),e,94.7389,318.2803,159.2497,220.9849,0.0003000,0.99169519,0.0000,03/18.6378/2023,2000,g 14.5,4.0
# From MPEC 2023-J95
C/2023 A2 (SWAN),e,94.7070,94.5053,142.5195,420.1783,0.0001144,0.99774872,0.0000,01/20.3637/2023,2000,g 13.5,4.0
# From MPEC 2024-YC7
C/2023 A3 (Tsuchinshan-ATLAS),h,09/27.7416/2024,139.1108,21.5605,308.4936,1.000098,0.391455,2000,6.5,3.2
# From MPEC 2024-F34
P/2023 B1 (PANSTARRS),e,14.5887,78.5584,81.6082,7.062531,0.0525126,0.13059518,31.9698,12/31.0/2024,2000,g  5.5,4.0
# From MPEC 2023-XP6
C/2023 B2 (ATLAS),e,40.7687,218.1079,317.3606,590.1324,0.0000688,0.99704925,0.0000,03/10.5363/2023,2000,g 14.5,4.0
# From MPEC 2023-F81
P/2023 B3 (PANSTARRS),e,9.1576,153.9935,240.3317,4.549069,0.1015828,0.12266998,160.1775,12/31.0/2024,2000,g 10.5,4.0
# From MPEC 2024-YC7
C/2023 C2 (ATLAS),e,48.3207,301.0043,357.4559,2716,0.0000070,0.99912791,0.0000,11/16.8100/2024,2000,g  7.0,4.0
# From MPEC 2024-D33
C/2023 E1 (ATLAS),e,38.2804,164.5160,105.9657,19.29881,0.0116254,0.94675086,6.3828,12/31.0/2024,2000,g 15.5,4.0
# From MPEC 2023-N01
C/2023 F1 (PANSTARRS),e,131.6953,25.3065,216.7377,253.7827,0.0002438,0.99326227,0.0000,06/28.2354/2023,2000,g 16.0,4.0
# From MPEC 2024-YC7
C/2023 F3 (ATLAS),h,02/02.6358/2025,145.9637,109.4629,265.5312,1.003881,5.190793,2000,6.0,4.0
# From MPEC 2024-RQ6
C/2023 H1 (PANSTARRS),e,21.7818,292.6472,333.7619,761.8859,0.0000469,0.99416216,0.0000,11/28.7107/2024,2000,g  8.5,4.0
# From MPEC 2024-GJ3
C/2023 H2 (Lemmon),e,113.7524,217.0544,150.6685,245.0495,0.0002569,0.99634799,0.0000,10/29.1651/2023,2000,g 14.0,4.0
# From MPEC 2023-R20
C/2023 H3 (PANSTARRS),e,2.4891,55.0956,193.2828,13.61663,0.0196155,0.61573917,6.2075,12/31.0/2024,2000,g 10.0,4.0
# From MPEC 2023-SQ0
A/2023 H4,e,76.5839,230.8247,65.0135,145.1517,0.0005636,0.98537257,0.0000,08/08.8750/2023,2000,g 18.0,22.0
# From MPEC 2024-YC7
C/2023 H5 (Lemmon),h,06/30.2044/2025,97.8571,159.4800,60.0872,1.000379,4.312750,2000,7.0,4.0
# From MPEC 2024-UA9
P/2023 JN16 (Lemmon),e,3.7026,11.8760,353.1547,2.695379,0.2227277,0.14680024,0.0873,12/31.0/2024,2000,g 14.0,4.0
# From MPEC 2024-GJ3
C/2023 K1 (ATLAS),e,137.9978,223.7027,337.4338,668.8580,0.0000570,0.99695177,0.0000,09/07.6641/2023,2000,g 13.0,4.0
# From MPEC 2023-N01
P/2023 M1 (PANSTARRS),e,12.2886,216.8603,79.6981,6.843359,0.0550554,0.58699066,21.0651,12/31.0/2024,2000,g 13.5,4.0
# From MPEC 2024-TD8
P/2023 M2 (PANSTARRS),e,19.7279,83.2497,243.2909,5.573950,0.0748962,0.36998726,39.1932,12/31.0/2024,2000,g 12.5,4.0
# From MPEC 2024-TP3
P/2023 M4 (ATLAS),e,7.5922,296.2908,320.5871,5.448446,0.0774988,0.27893032,76.8681,12/31.0/2024,2000,g  7.5,4.0
# From MPEC 2024-MB8
C/2023 P1 (Nishimura),e,132.4768,66.8454,116.2774,56.70581,0.0023081,0.99603753,0.0000,09/17.6457/2023,2000,g 10.0,4.0
# From MPEC 2024-YC7
C/2023 Q1 (PANSTARRS),h,12/01.1428/2024,36.6428,7.1291,84.4160,1.005229,2.575701,2000,10.0,4.0
# From MPEC 2024-N80
C/2023 Q2 (PANSTARRS),e,104.0616,92.6796,171.7053,350.4560,0.0001502,0.99084211,0.0000,06/24.0054/2024,2000,g 11.5,4.0
# From MPEC 2024-YC7
C/2023 R1 (PANSTARRS),h,04/13.5624/2026,149.3164,62.5561,144.2823,1.001960,3.569437,2000,6.0,4.0
# From MPEC 2024-L77
C/2023 R2 (PANSTARRS),h,08/12.1491/2024,30.6889,188.9100,337.3047,1.000237,0.905163,2000,10.5,4.0
# From MPEC 2023-UR6
A/2023 R3,e,12.0837,347.3482,86.9172,696.3144,0.0000536,0.99804969,0.0000,12/18.1939/2023,2000,g 20.0,22.0
# From MPEC 2024-YC7
C/2023 RN3 (ATLAS),e,10.3530,207.0671,130.5617,10.17174,0.0303816,0.49091695,21.5914,12/31.0/2024,2000,g  7.5,4.0
# From MPEC 2024-YC7
P/2023 S1,e,9.1571,317.2903,180.2883,3.845074,0.1307215,0.31869018,352.7958,12/31.0/2024,2000,g 11.5,4.0
# From MPEC 2023-XP6
C/2023 S2 (ATLAS),e,19.8417,229.7708,78.6805,198.9171,0.0003513,0.99467357,0.0000,10/16.0968/2023,2000,g 15.0,4.0
# From MPEC 2024-P23
C/2023 S3 (Lemmon),e,140.4970,233.8320,281.5564,28.47598,0.0064861,0.97086021,0.0000,01/19.6406/2024,2000,g 16.0,4.0
# From MPEC 2024-BE0
P/2023 T1 (PANSTARRS),e,6.6123,249.5759,202.8526,4.226146,0.1134455,0.33335375,25.2027,12/31.0/2024,2000,g 14.0,4.0
# From MPEC 2024-GJ3
C/2023 T2 (Borisov),e,48.5948,317.5305,111.2044,225.6912,0.0002907,0.99115709,0.0000,12/22.7836/2023,2000,g 14.5,4.0
# From MPEC 2024-YC7
C/2023 T3 (Fuls),e,27.2221,246.0003,302.8462,796.8401,0.0000438,0.99554702,0.0000,01/25.3369/2025,2000,g  8.5,4.0
# From MPEC 2024-VB7
C/2023 TD22 (Lemmon),e,170.4899,5.5578,32.5384,48.25341,0.0029404,0.95115759,0.3108,12/31.0/2024,2000,g 12.5,4.0
# From MPEC 2024-YC7
C/2023 U1 (Fuls),e,108.1457,305.8068,255.6309,2297,0.0000090,0.99783515,0.0000,10/12.8000/2024,2000,g  8.0,4.0
# From MPEC 2024-YC7
C/2023 V1 (Lemmon),h,07/13.0358/2025,102.0136,15.0353,103.3125,1.000266,5.092568,2000,8.5,4.0
# From MPEC 2024-YC7
P/2023 V2 (PANSTARRS),e,9.8882,95.4736,330.5336,7.225733,0.0507436,0.57041080,16.8059,12/31.0/2024,2000,g 13.5,4.0
# From MPEC 2024-A43
C/2023 V3 (PANSTARRS),e,40.5387,91.3140,291.8773,13.22064,0.0205034,0.66129652,10.4915,12/31.0/2024,2000,g 11.5,4.0
# From MPEC 2024-UQ8
C/2023 V4 (Camarasa-Duszanowicz),h,05/30.3738/2024,67.1302,66.3258,50.8617,1.001060,1.121776,2000,12.0,4.0
# From MPEC 2024-GJ3
C/2023 V5 (Leonard),h,12/13.8911/2023,73.5687,31.5193,56.9632,1.009387,0.846253,2000,21.5,4.0
# From MPEC 2024-UA9
P/2023 V6 (PANSTARRS),e,3.9709,189.7824,193.0973,5.308379,0.0805863,0.17620929,60.7369,12/31.0/2024,2000,g 11.5,4.0
# From MPEC 2024-GJ3
C/2023 X1 (Leonard),e,110.5873,137.0049,321.4638,156.8959,0.0005015,0.99394108,0.0000,10/18.0361/2023,2000,g 13.5,3.2
# From MPEC 2024-YC7
C/2023 X2 (Lemmon),h,12/27.6539/2025,76.9920,66.3093,64.7017,1.000793,5.090281,2000,8.5,3.2
# From MPEC 2024-A43
P/2023 X3 (PANSTARRS),e,4.4834,62.0119,40.8384,4.245505,0.1126705,0.28623275,28.5024,12/31.0/2024,2000,g 15.5,4.0
# From MPEC 2024-JU4
C/2023 X4 (Hogan),e,11.5945,28.7674,100.5607,9.915765,0.0315656,0.63107558,6.9482,12/31.0/2024,2000,g 12.0,4.0
# From MPEC 2024-DA2
C/2023 X7 (PANSTARRS),h,05/15.0205/2025,69.0620,119.2037,354.3714,1.002704,4.820491,2000,9.0,4.0
# From MPEC 2024-JU4
P/2023 Y1 (Gibbs),e,6.3842,78.8556,51.4581,3.749535,0.1357494,0.44529585,53.9140,12/31.0/2024,2000,g 17.0,4.0
# From MPEC 2024-F34
P/2023 Y2 (Gibbs),e,6.9929,79.2275,16.8683,3.746291,0.1359258,0.39229869,69.1819,12/31.0/2024,2000,g 15.5,4.0
# From MPEC 2024-YC7
C/2024 A1 (ATLAS),h,06/13.7187/2025,94.4470,112.1409,353.3106,1.001585,3.875375,2000,7.0,4.0
# From MPEC 2024-YC7
C/2024 A2 (ATLAS),e,119.1169,78.1670,295.5554,32.56935,0.0053026,0.94225163,1.3049,12/31.0/2024,2000,g 12.5,4.0
# From MPEC 2024-YC7
C/2024 B1 (Lemmon),h,10/07.7042/2024,70.9041,79.1878,66.2102,1.000856,1.633715,2000,13.0,4.0
# From MPEC 2024-YC7
C/2024 B2 (Lemmon),e,99.8496,294.3791,130.3408,3562,0.0000046,0.99885540,0.0000,10/06.0829/2023,2000,g 11.5,4.0
# From MPEC 2024-M41
C/2024 C1 (PANSTARRS),e,14.2269,83.8086,94.4666,10.57105,0.0286765,0.58254621,3.5022,12/31.0/2024,2000,g 11.5,4.0
# From MPEC 2024-JU4
C/2024 C2 (PANSTARRS),e,27.2843,66.4412,87.5451,16.21044,0.0151012,0.44533536,358.9507,12/31.0/2024,2000,g  6.0,4.0
# From MPEC 2024-GJ3
C/2024 C3 (PANSTARRS),e,22.4593,359.7086,159.6591,11.65824,0.0247602,0.42421643,10.3681,12/31.0/2024,2000,g  9.0,4.0
# From MPEC 2024-Q20
C/2024 C4 (ATLAS),e,79.2854,220.6815,321.5091,83.72727,0.0012865,0.98243228,0.0000,01/30.1922/2024,2000,g 14.5,4.0
# From MPEC 2024-YC7
A/2024 D1,e,132.4523,179.6692,125.7486,5027,0.0000028,0.99866784,0.0000,12/03.5709/2027,2000,g 11.0,22.0
# From MPEC 2024-YC7
C/2024 E1 (Wierzchos),h,01/20.7688/2026,75.2377,108.0850,243.6464,1.000032,0.565686,2000,7.0,4.0
# From MPEC 2024-JU4
C/2024 E2 (Bok),e,155.6468,135.6497,358.0757,51.60945,0.0026583,0.85093948,1.1527,12/31.0/2024,2000,g  8.0,4.0
# From MPEC 2024-JU4
P/2024 F1 (PANSTARRS),e,7.0056,251.5413,229.5577,3.443415,0.1542481,0.45994223,66.6804,12/31.0/2024,2000,g 16.0,4.0
# From MPEC 2024-Q20
C/2024 F2 (PANSTARRS),e,13.7417,138.9432,112.9024,9.947622,0.0314141,0.60109108,4.8670,12/31.0/2024,2000,g 11.0,4.0
# From MPEC 2024-UA9
P/2024 FG9 (Nanshan-Hahn),e,1.7313,253.0425,245.9202,3.256948,0.1676826,0.50984782,37.6674,12/31.0/2024,2000,g 14.0,4.0
# From MPEC 2024-PC5
C/2024 G1 (Wierzchos),e,95.3990,30.6017,128.2230,122.3023,0.0007287,0.96786478,0.0517,12/31.0/2024,2000,g 10.0,4.0
# From MPEC 2024-JU4
C/2024 G2 (ATLAS),e,122.1286,171.3997,328.7893,887.6766,0.0000373,0.99397782,0.0000,06/13.7486/2025,2000,g  7.0,4.0
# From MPEC 2024-YC7
C/2024 G3 (ATLAS),h,01/13.4322/2025,116.8467,220.3376,108.1226,1.000007,0.093545,2000,9.0,4.0
# From MPEC 2024-P23
C/2024 G4 (PANSTARRS),e,33.0264,152.9900,131.4280,2974,0.0000061,0.99835212,0.0000,03/21.7248/2026,2000,g  8.0,4.0
# From MPEC 2024-JC6
C/2024 G5 (Leonard),e,50.3876,316.3967,209.5674,550.8033,0.0000762,0.99463897,0.0000,09/07.0141/2024,2000,g 13.0,4.0
# From MPEC 2024-RQ6
C/2024 G6 (ATLAS),h,02/20.8967/2026,120.4580,250.9518,23.4551,1.002351,6.429259,2000,5.5,4.0
# From MPEC 2024-Q20
